<?xml version="1.0" encoding="UTF-8"?>
<osm version="0.6" generator="Overpass API">
<note>The data included in this document is from www.openstreetmap.org. The data is made available under ODbL.</note>
<meta osm_base="2014-02-22T17:24:01Z"/>

  <node id="26542873" lat="51.4006324" lon="-0.1693706" version="5" timestamp="2012-10-14T09:54:44Z" changeset="13489742" uid="367630" user="wadeLondon">
    <tag k="amenity" v="post_box"/>
    <tag k="collection_times" v="Mo-Fr 17:15; Sa 12:00"/>
    <tag k="operator" v="Royal Mail"/>
    <tag k="ref" v="CR4 6"/>
    <tag k="royal_cypher" v="EVIIR"/>
  </node>
  <node id="31567510" lat="54.4735514" lon="-3.0259353" version="2" timestamp="2012-01-04T22:22:16Z" changeset="10296090" uid="221923" user="michaelinredhill">
    <tag k="amenity" v="post_box"/>
    <tag k="ref" v="LA22 163"/>
    <tag k="royal_cypher" v="EVIIR"/>
  </node>
  <node id="33433209" lat="51.4334329" lon="-2.0006514" version="4" timestamp="2012-05-07T19:59:34Z" changeset="11533101" uid="76617" user="robbieonsea">
    <tag k="amenity" v="post_box"/>
    <tag k="collection_times" v="Mo-Fr 17:30; Sa 12:00"/>
    <tag k="post_box:type" v="pillar"/>
    <tag k="ref" v="SN10 106"/>
    <tag k="royal_cypher" v="EVIIR"/>
  </node>
  <node id="90239797" lat="50.7967729" lon="-1.1044674" version="5" timestamp="2012-06-10T09:33:27Z" changeset="11852243" uid="76617" user="robbieonsea">
    <tag k="amenity" v="post_box"/>
    <tag k="collection_times" v="Mo-Fr 17:30; Sa 11:30"/>
    <tag k="post_box:type" v="pillar"/>
    <tag k="ref" v="PO1 19"/>
    <tag k="royal_cypher" v="EVIIR"/>
  </node>
  <node id="204159175" lat="52.6721515" lon="-3.1104916" version="2" timestamp="2013-09-21T00:07:24Z" changeset="17948803" uid="76617" user="robbieonsea">
    <tag k="amenity" v="post_box"/>
    <tag k="collection_times" v="Mo-Fr 17:15; Sa 11:45"/>
    <tag k="post_box:type" v="wall"/>
    <tag k="ref" v="SY21 4"/>
    <tag k="royal_cypher" v="EVIIR"/>
  </node>
  <node id="244453051" lat="51.7619857" lon="-1.2602303" version="4" timestamp="2013-07-29T08:58:48Z" changeset="17136077" uid="855381" user="Pierre Riteau">
    <tag k="amenity" v="post_box"/>
    <tag k="collection_times" v="Mo-Fr 17:15; Sa 11:00"/>
    <tag k="operator" v="Royal Mail"/>
    <tag k="post_box:type" v="pillar"/>
    <tag k="ref" v="OX2 49"/>
    <tag k="royal_cypher" v="EVIIR"/>
  </node>
  <node id="258952555" lat="51.1387441" lon="-0.7195523" version="2" timestamp="2012-06-29T19:58:29Z" changeset="12060123" uid="76617" user="robbieonsea">
    <tag k="amenity" v="post_box"/>
    <tag k="collection_times" v="Mo-Fr 16:30; Sa 20:45"/>
    <tag k="post_box:type" v="wall"/>
    <tag k="royal_cypher" v="EVIIR"/>
  </node>
  <node id="267856940" lat="51.4111947" lon="-0.2056960" version="2" timestamp="2012-08-14T11:29:52Z" changeset="12725698" uid="367630" user="wadeLondon">
    <tag k="amenity" v="post_box"/>
    <tag k="collection_times" v="Mo-Fr 17:30; Sa 12:00"/>
    <tag k="operator" v="Royal Mail"/>
    <tag k="ref" v="SW19 72"/>
    <tag k="royal_cypher" v="EVIIR"/>
  </node>
  <node id="267856948" lat="51.4089477" lon="-0.2000972" version="2" timestamp="2012-08-14T11:13:52Z" changeset="12725501" uid="367630" user="wadeLondon">
    <tag k="amenity" v="post_box"/>
    <tag k="collection_times" v="Mo-Fr 17:30; Sa 12:00"/>
    <tag k="ref" v="SW19 23"/>
    <tag k="royal_cypher" v="EVIIR"/>
  </node>
  <node id="267856976" lat="51.4017992" lon="-0.1968192" version="5" timestamp="2012-08-02T10:27:08Z" changeset="12583988" uid="367630" user="wadeLondon">
    <tag k="amenity" v="post_box"/>
    <tag k="collection_times" v="Mo-Fr 16:45; Sa 12:00"/>
    <tag k="operator" v="Royal Mail"/>
    <tag k="ref" v="SM4 194"/>
    <tag k="royal_cypher" v="EVIIR"/>
  </node>
  <node id="317480724" lat="51.8062753" lon="-1.6375599" version="2" timestamp="2011-11-20T14:18:02Z" changeset="9884602" uid="49031" user="craigloftus">
    <tag k="amenity" v="post_box"/>
    <tag k="collection_times" v="Mo-Fr 16:30; Sa 09:30"/>
    <tag k="post_box:type" v="wall"/>
    <tag k="ref" v="OX18 418"/>
    <tag k="royal_cypher" v="EVIIR"/>
  </node>
  <node id="330128365" lat="51.6388095" lon="-0.1028194" version="3" timestamp="2013-12-29T21:46:43Z" changeset="19705601" uid="142399" user="shirokazan">
    <tag k="amenity" v="post_box"/>
    <tag k="collection_times" v="Mo-Fr 17:30; Sa 12:00"/>
    <tag k="note" v="Double-checked as bearing ref N21 18; it seems to have a duplicate reference to the one up the hill."/>
    <tag k="operator" v="Royal Mail"/>
    <tag k="post_box:type" v="pillar"/>
    <tag k="postal_code" v="N21 1"/>
    <tag k="ref" v="N21 18"/>
    <tag k="royal_cypher" v="EVIIR"/>
    <tag k="source" v="survey"/>
  </node>
  <node id="332076081" lat="53.8140205" lon="-1.5837844" version="2" timestamp="2012-09-10T23:26:54Z" changeset="13063677" uid="605122" user="neiljp">
    <tag k="amenity" v="post_box"/>
    <tag k="collection_times" v="Mo-Fr 17:30; Sa 11:30"/>
    <tag k="operator" v="Royal Mail"/>
    <tag k="post_box:type" v="pillar"/>
    <tag k="ref" v="LS4 571"/>
    <tag k="royal_cypher" v="EVIIR"/>
    <tag k="source" v="survey; Bing"/>
  </node>
  <node id="336122576" lat="52.3971483" lon="-1.5348534" version="5" timestamp="2012-03-18T23:41:57Z" changeset="11025334" uid="411244" user="RobJN">
    <tag k="amenity" v="post_box"/>
    <tag k="collection_times" v="Mo-Fr 16:30; Sa 10:15"/>
    <tag k="odbl" v="clean"/>
    <tag k="odbl:note" v="resurveyed 2012-03-18"/>
    <tag k="post_box:type" v="pillar"/>
    <tag k="postal_code" v="CV5"/>
    <tag k="ref" v="CV5 106"/>
    <tag k="royal_cypher" v="EVIIR"/>
  </node>
  <node id="339925228" lat="53.8160021" lon="-1.6009885" version="3" timestamp="2013-01-06T20:45:17Z" changeset="14555473" uid="592" user="JonS">
    <tag k="amenity" v="post_box"/>
    <tag k="collection_times" v="Mo-Fr 18:00; Sa 11:45"/>
    <tag k="operator" v="Royal Mail"/>
    <tag k="post_box:type" v="pillar"/>
    <tag k="ref" v="LS5 489"/>
    <tag k="royal_cypher" v="EVIIR"/>
  </node>
  <node id="345887767" lat="51.5071461" lon="-0.1254290" version="7" timestamp="2013-10-04T11:37:23Z" changeset="18176795" uid="84263" user="Robert Whittaker">
    <tag k="amenity" v="post_box"/>
    <tag k="box_type" v="pillar_box_dual_aperture"/>
    <tag k="post_box:apertures" v="2"/>
    <tag k="ref" v="WC2 73"/>
    <tag k="royal_cypher" v="EVIIR"/>
  </node>
  <node id="346168082" lat="51.5728461" lon="-0.0083362" version="7" timestamp="2012-10-05T07:15:55Z" changeset="13369293" uid="367630" user="wadeLondon">
    <tag k="addr:housenumber" v="736"/>
    <tag k="addr:street" v="High Road Leyton"/>
    <tag k="amenity" v="post_box"/>
    <tag k="collection_times" v="Mo-Fr 17:30; Sa 11:30"/>
    <tag k="operator" v="Royal Mail"/>
    <tag k="postal_code" v="E10 6AA"/>
    <tag k="ref" v="E10 15"/>
    <tag k="royal_cypher" v="EVIIR"/>
  </node>
  <node id="347768687" lat="57.4148387" lon="-4.4626575" version="2" timestamp="2010-09-30T22:13:42Z" changeset="5924116" uid="4985" user="Vclaw">
    <tag k="amenity" v="post_box"/>
    <tag k="collection_times" v="Mo-Fr 12:00; Sa 12:00"/>
    <tag k="operator" v="Royal Mail"/>
    <tag k="post_box:type" v="wall"/>
    <tag k="ref" v="IV4 156"/>
    <tag k="royal_cypher" v="EVIIR"/>
    <tag k="source" v="survey"/>
  </node>
  <node id="349310484" lat="57.4227852" lon="-4.5741726" version="2" timestamp="2010-08-30T22:19:57Z" changeset="5641043" uid="4985" user="Vclaw">
    <tag k="amenity" v="post_box"/>
    <tag k="collection_times" v="Mo-Sa 11:45"/>
    <tag k="operator" v="Royal Mail"/>
    <tag k="post_box:type" v="lamp"/>
    <tag k="ref" v="IV4 149"/>
    <tag k="royal_cypher" v="EVIIR"/>
    <tag k="source" v="survey"/>
    <tag k="source:ref" v="photograph"/>
  </node>
  <node id="358548493" lat="51.5141588" lon="-0.1075102" version="7" timestamp="2013-05-06T22:40:11Z" changeset="16004718" uid="82783" user="Paul The Archivist">
    <tag k="amenity" v="post_box"/>
    <tag k="collection_times" v="Mo-Fr 18:30; Sa 12:00"/>
    <tag k="operator" v="Royal Mail"/>
    <tag k="post_box:apertures" v="2"/>
    <tag k="ref" v="EC4 413"/>
    <tag k="royal_cypher" v="EVIIR"/>
  </node>
  <node id="361687829" lat="52.2018606" lon="0.1182143" version="12" timestamp="2013-06-23T08:37:34Z" changeset="16665959" uid="84263" user="Robert Whittaker">
    <tag k="amenity" v="post_box"/>
    <tag k="box_type" v="pillar"/>
    <tag k="collection_times" v="Mo-Fr 18:30; Sa 12:30"/>
    <tag k="operator" v="Royal Mail"/>
    <tag k="postal_code" v="CB2 3"/>
    <tag k="ref" v="CB2 106"/>
    <tag k="royal_cypher" v="EVIIR"/>
    <tag k="source" v="survey"/>
  </node>
  <node id="394179276" lat="52.0617852" lon="-2.3468004" version="3" timestamp="2011-01-16T14:49:40Z" changeset="6988440" uid="369186" user="mwbg">
    <tag k="amenity" v="post_box"/>
    <tag k="box_type" v="wall_box"/>
    <tag k="collection_plate" v="uncoded"/>
    <tag k="collection_times" v="Mo-Fr 09:30,16:00; Sa 09:30"/>
    <tag k="historic_operator" v="Post Office"/>
    <tag k="old_ref" v="M051 Wynds Point, Colwall"/>
    <tag k="ref" v="WR13 51"/>
    <tag k="royal_cypher" v="EVIIR"/>
    <tag k="source" v="survey"/>
  </node>
  <node id="410846049" lat="51.7081309" lon="-1.2895081" version="2" timestamp="2013-06-09T10:25:36Z" changeset="16479531" uid="49031" user="craigloftus">
    <tag k="amenity" v="post_box"/>
    <tag k="collection_times" v="Mo-Fr 16:45; Sa 10:00"/>
    <tag k="post_box:type" v="wall"/>
    <tag k="ref" v="OX1 595"/>
    <tag k="royal_cypher" v="EVIIR"/>
    <tag k="source" v="survey"/>
    <tag k="survey:date" v="2013-06-08"/>
  </node>
  <node id="414557391" lat="51.4730819" lon="-2.0513053" version="3" timestamp="2012-05-07T20:15:27Z" changeset="11533298" uid="76617" user="robbieonsea">
    <tag k="amenity" v="post_box"/>
    <tag k="collection_times" v="Mo-Fr 16:30; Sa 08:00"/>
    <tag k="post_box:type" v="wall"/>
    <tag k="ref" v="SN15 15"/>
    <tag k="royal_cypher" v="EVIIR"/>
  </node>
  <node id="416590130" lat="51.8835985" lon="0.8569986" version="5" timestamp="2013-09-11T21:48:34Z" changeset="17791111" uid="84263" user="Robert Whittaker">
    <tag k="amenity" v="post_box"/>
    <tag k="operator" v="Royal Mail"/>
    <tag k="ref" v="CO3 160"/>
    <tag k="royal_cypher" v="EVIIR"/>
  </node>
  <node id="426948486" lat="50.7409927" lon="-3.4861853" version="3" timestamp="2014-02-10T18:01:29Z" changeset="20489850" uid="126370" user="wilpin">
    <tag k="amenity" v="post_box"/>
    <tag k="royal_cypher" v="EVIIR"/>
  </node>
  <node id="434803661" lat="52.1115349" lon="-2.3263018" version="3" timestamp="2010-10-29T18:39:26Z" changeset="6221094" uid="253958" user="user_253958">
    <tag k="amenity" v="post_box"/>
    <tag k="box_type" v="pillar_box"/>
    <tag k="collection_plate" v="CP2"/>
    <tag k="collection_times" v="Mo-Fr 17:45; Sa 11:30"/>
    <tag k="ref" v="WR14 59"/>
    <tag k="royal_cypher" v="EVIIR"/>
  </node>
  <node id="442370629" lat="51.5183351" lon="-0.1113897" version="5" timestamp="2013-09-12T18:10:44Z" changeset="17804543" uid="238584" user="mcld">
    <tag k="amenity" v="post_box"/>
    <tag k="collection_times" v="Mo-Fr 18:30; Sa 12:00"/>
    <tag k="ref" v="WC1 37"/>
    <tag k="royal_cypher" v="EVIIR"/>
  </node>
  <node id="457102331" lat="51.5269170" lon="-0.1183930" version="3" timestamp="2012-05-12T12:11:59Z" changeset="11575982" uid="84263" user="Robert Whittaker">
    <tag k="amenity" v="post_box"/>
    <tag k="collection_times" v="Mo-Fr 18:30; Sa 12:00"/>
    <tag k="mail:abroad" v="yes"/>
    <tag k="mail:first_class" v="yes"/>
    <tag k="mail:franked" v="yes"/>
    <tag k="note" v="One aperture for first class and abroad; one for franked mail. Both fitted with Belfast plates"/>
    <tag k="post_box:apertures" v="2"/>
    <tag k="ref" v="WC1 39"/>
    <tag k="royal_cypher" v="EVIIR"/>
  </node>
  <node id="461281902" lat="51.5172790" lon="-0.1121765" version="6" timestamp="2012-10-07T15:14:31Z" changeset="13399537" uid="367630" user="wadeLondon">
    <tag k="amenity" v="post_box"/>
    <tag k="collection_times" v="Mo-Fr 18:00; Sa 12:00"/>
    <tag k="ref" v="WC2 53"/>
    <tag k="royal_cypher" v="EVIIR"/>
  </node>
  <node id="479199691" lat="52.0922832" lon="-2.3346437" version="3" timestamp="2013-06-22T22:21:41Z" changeset="16662424" uid="545369" user="bigfatfrog67">
    <tag k="amenity" v="post_box"/>
    <tag k="box_type" v="wall_box"/>
    <tag k="collection_plate" v="CP2"/>
    <tag k="collection_times" v="Mo-Fr 17:30; Sa 11:00"/>
    <tag k="historic_operator" v="Post Office"/>
    <tag k="ref" v="WR14 67"/>
    <tag k="royal_cypher" v="EVIIR"/>
  </node>
  <node id="526003490" lat="51.5242160" lon="-0.1169271" version="6" timestamp="2012-10-15T07:24:10Z" changeset="13501990" uid="367630" user="wadeLondon">
    <tag k="amenity" v="post_box"/>
    <tag k="collection_times" v="Mo-Fr 18:30; Sa 12:00"/>
    <tag k="ref" v="WC1 22"/>
    <tag k="royal_cypher" v="EVIIR"/>
  </node>
  <node id="540351863" lat="51.8285110" lon="-1.3500947" version="3" timestamp="2013-04-20T21:03:46Z" changeset="15803696" uid="49031" user="craigloftus">
    <tag k="amenity" v="post_box"/>
    <tag k="collection_times" v="Mo-Fr 16:30; Sa 07:15"/>
    <tag k="post_box:type" v="wall"/>
    <tag k="ref" v="OX20 175"/>
    <tag k="royal_cypher" v="EVIIR"/>
    <tag k="source" v="survey"/>
    <tag k="survey:date" v="2013-04-20"/>
  </node>
  <node id="566410110" lat="50.7939703" lon="-1.0477777" version="3" timestamp="2012-04-04T13:53:53Z" changeset="11176909" uid="14020" user="Nick Austin">
    <tag k="amenity" v="post_box"/>
    <tag k="collection_times" v="Mo-Fr 17:00; Sa 11:30"/>
    <tag k="odbl" v="clean"/>
    <tag k="post_box:type" v="pillar"/>
    <tag k="ref" v="PO4 146"/>
    <tag k="royal_cypher" v="EVIIR"/>
  </node>
  <node id="568370214" lat="52.1941240" lon="0.1374410" version="4" timestamp="2013-11-28T13:22:38Z" changeset="19160123" uid="770155" user="Toffer12">
    <tag k="amenity" v="post_box"/>
    <tag k="collection_times" v="Mo-Fr 17:30; Sa 13:00"/>
    <tag k="note" v="On platform; Only available to rail passengers"/>
    <tag k="operator" v="Royal Mail"/>
    <tag k="post_box:type" v="wall"/>
    <tag k="postal_code" v="CB1 2"/>
    <tag k="ref" v="CB1 23"/>
    <tag k="royal_cypher" v="EVIIR"/>
  </node>
  <node id="593344407" lat="51.5236418" lon="-0.0987575" version="4" timestamp="2012-01-15T16:39:41Z" changeset="10400061" uid="84263" user="Robert Whittaker">
    <tag k="amenity" v="post_box"/>
    <tag k="box_type" v="pillar"/>
    <tag k="collection_times" v="Mo-Fr 18:30; Sa 12:00"/>
    <tag k="post_box:apertures" v="2"/>
    <tag k="ref" v="EC1 134"/>
    <tag k="royal_cypher" v="EVIIR"/>
  </node>
  <node id="599286398" lat="52.0385908" lon="-2.0878482" version="4" timestamp="2012-03-16T16:44:34Z" changeset="11000143" uid="84263" user="Robert Whittaker">
    <tag k="amenity" v="post_box"/>
    <tag k="box_type" v="wall"/>
    <tag k="collection_times" v="Mo-Fr 16:30; Sa 08:00"/>
    <tag k="ref" v="GL20 2"/>
    <tag k="royal_cypher" v="EVIIR"/>
  </node>
  <node id="602183605" lat="52.0485872" lon="-2.1029736" version="2" timestamp="2012-06-22T13:26:58Z" changeset="11979114" uid="84263" user="Robert Whittaker">
    <tag k="amenity" v="post_box"/>
    <tag k="box_type" v="wall"/>
    <tag k="collection_times" v="Mo-Fr 16:45; Sa 09:45"/>
    <tag k="note" v="May actually be a lamp box, built in to a stone a wall"/>
    <tag k="ref" v="GL20 37"/>
    <tag k="royal_cypher" v="EVIIR"/>
  </node>
  <node id="616757491" lat="51.4534723" lon="-2.5965682" version="3" timestamp="2013-12-08T16:10:44Z" changeset="19343125" uid="770155" user="Toffer12">
    <tag k="amenity" v="post_box"/>
    <tag k="collection_times" v="Mo-Fr 18:00; Sa 11:45"/>
    <tag k="post_box:apertures" v="2"/>
    <tag k="post_box:type" v="pillar"/>
    <tag k="ref" v="BS1 409"/>
    <tag k="royal_cypher" v="EVIIR"/>
  </node>
  <node id="639769035" lat="51.1834536" lon="0.1105492" version="2" timestamp="2013-03-17T23:13:10Z" changeset="15402698" uid="221923" user="michaelinredhill">
    <tag k="amenity" v="post_box"/>
    <tag k="ref" v="TN8 144"/>
    <tag k="royal_cypher" v="EVIIR"/>
  </node>
  <node id="672931318" lat="52.4142816" lon="0.7471050" version="6" timestamp="2012-03-24T10:46:07Z" changeset="11082954" uid="84263" user="Robert Whittaker">
    <tag k="amenity" v="post_box"/>
    <tag k="box_type" v="wall"/>
    <tag k="collection_times" v="Mo-Fr 17:30; Sa 12:00"/>
    <tag k="ref" v="IP24 3301"/>
    <tag k="royal_cypher" v="EVIIR"/>
  </node>
  <node id="681632603" lat="52.0296061" lon="-2.3772115" version="2" timestamp="2013-05-08T13:29:01Z" changeset="16029259" uid="84263" user="Robert Whittaker">
    <tag k="amenity" v="post_box"/>
    <tag k="box_type" v="wall"/>
    <tag k="collection_times" v="Mo-Fr 15:15; Sa 08:30"/>
    <tag k="ref" v="HR8 339"/>
    <tag k="royal_cypher" v="EVIIR"/>
  </node>
  <node id="686730945" lat="52.2546602" lon="-0.8974940" version="3" timestamp="2012-08-04T16:32:01Z" changeset="12611253" uid="530410" user="PJD67">
    <tag k="amenity" v="post_box"/>
    <tag k="operator" v="Royal Mail"/>
    <tag k="ref" v="NN2 78"/>
    <tag k="royal_cypher" v="EVIIR"/>
  </node>
  <node id="691673873" lat="51.4816720" lon="-2.5838172" version="7" timestamp="2013-12-08T17:56:30Z" changeset="19345002" uid="770155" user="Toffer12">
    <tag k="amenity" v="post_box"/>
    <tag k="collection_times" v="Mo-Fr 17:45; Sa 11:45"/>
    <tag k="operator" v="Royal Mail"/>
    <tag k="postal_code" v="BS7"/>
    <tag k="ref" v="BS7 343"/>
    <tag k="royal_cypher" v="EVIIR"/>
    <tag k="source" v="gps"/>
  </node>
  <node id="703370598" lat="51.5193818" lon="-0.1191555" version="10" timestamp="2013-12-21T11:24:08Z" changeset="19564431" uid="142399" user="shirokazan">
    <tag k="amenity" v="post_box"/>
    <tag k="collection_times" v="Mo-Fr 18:30; Sa 12:00"/>
    <tag k="operator" v="Royal Mail"/>
    <tag k="post_box:type" v="pillar"/>
    <tag k="ref" v="WC1 30"/>
    <tag k="royal_cypher" v="EVIIR"/>
    <tag k="source" v="survey"/>
  </node>
  <node id="817288514" lat="50.7189054" lon="-1.8871025" version="4" timestamp="2012-06-24T09:25:07Z" changeset="11997348" uid="84263" user="Robert Whittaker">
    <tag k="amenity" v="post_box"/>
    <tag k="box_type" v="pillar_box"/>
    <tag k="ref" v="BH2 29"/>
    <tag k="royal_cypher" v="EVIIR"/>
    <tag k="source" v="survey"/>
  </node>
  <node id="818648457" lat="52.0131260" lon="-2.3409690" version="4" timestamp="2014-01-06T09:43:15Z" changeset="19840274" uid="84263" user="Robert Whittaker">
    <tag k="amenity" v="post_box"/>
    <tag k="box_type" v="wall_box"/>
    <tag k="collection_times" v="Mo-Fr 15:00; Sa 10:30"/>
    <tag k="description" v="The hamlet seems to take its name from the thoroughfare.&lt;br&gt;In right-side boundary stone wall of house, a few meters along the N arm of this triangle junction./Chase End Street / Black Lane / (unnamed)"/>
    <tag k="fixme" v="mass-upload; needs manual review"/>
    <tag k="post_box:type" v="wall"/>
    <tag k="ref" v="HR8 336"/>
    <tag k="royal_cypher" v="EVIIR"/>
  </node>
  <node id="821375765" lat="51.0660793" lon="-1.7979267" version="3" timestamp="2014-02-12T22:56:07Z" changeset="20532219" uid="82783" user="Paul The Archivist">
    <tag k="amenity" v="post_box"/>
    <tag k="collection_times" v="Mo-Fr 18:30; Sa 12:00"/>
    <tag k="post_box:manufacturer" v="Handyside, Derby &amp; London"/>
    <tag k="post_box:type" v="pillar"/>
    <tag k="postal_code" v="SP1"/>
    <tag k="ref" v="SP1 1"/>
    <tag k="royal_cypher" v="EVIIR"/>
  </node>
  <node id="822806851" lat="50.7261316" lon="-1.8585455" version="3" timestamp="2013-01-06T11:52:23Z" changeset="14547665" uid="397946" user="untitled">
    <tag k="amenity" v="post_box"/>
    <tag k="box_type" v="pillar_box"/>
    <tag k="ref" v="BH1 189"/>
    <tag k="royal_cypher" v="EVIIR"/>
  </node>
  <node id="822806867" lat="50.7251520" lon="-1.8610077" version="3" timestamp="2013-01-06T11:52:23Z" changeset="14547665" uid="397946" user="untitled">
    <tag k="amenity" v="post_box"/>
    <tag k="box_type" v="pillar_box"/>
    <tag k="collection_times" v="Mo-Fr 17:30; Sa 11:45"/>
    <tag k="ref" v="BH1 145"/>
    <tag k="royal_cypher" v="EVIIR"/>
  </node>
  <node id="822806898" lat="50.7238317" lon="-1.8478894" version="4" timestamp="2013-08-23T09:23:19Z" changeset="17467168" uid="84263" user="Robert Whittaker">
    <tag k="amenity" v="post_box"/>
    <tag k="box_type" v="pillar_box"/>
    <tag k="description" v="By entrance to gardens."/>
    <tag k="ref" v="BH1 61"/>
    <tag k="royal_cypher" v="EVIIR"/>
  </node>
  <node id="822806912" lat="50.7264894" lon="-1.8693014" version="3" timestamp="2013-02-03T20:55:47Z" changeset="14902335" uid="397946" user="untitled">
    <tag k="amenity" v="post_box"/>
    <tag k="box_type" v="pillar_box"/>
    <tag k="ref" v="BH1 125"/>
    <tag k="royal_cypher" v="EVIIR"/>
  </node>
  <node id="824244220" lat="51.5173000" lon="-0.1297080" version="6" timestamp="2013-09-15T20:56:45Z" changeset="17858148" uid="286584" user="Firefishy_repair">
    <tag k="amenity" v="post_box"/>
    <tag k="collection_times" v="Mo-Fr 18:30; Sa 12:00"/>
    <tag k="operator" v="Royal Mail"/>
    <tag k="post_box:type" v="pillar"/>
    <tag k="ref" v="WC1 5"/>
    <tag k="royal_cypher" v="EVIIR"/>
  </node>
  <node id="824279984" lat="50.7180900" lon="-1.8832110" version="2" timestamp="2012-06-24T09:25:08Z" changeset="11997348" uid="84263" user="Robert Whittaker">
    <tag k="amenity" v="post_box"/>
    <tag k="box_type" v="pillar_box"/>
    <tag k="ref" v="BH2 87"/>
    <tag k="royal_cypher" v="EVIIR"/>
  </node>
  <node id="824279988" lat="50.7211171" lon="-1.8864673" version="4" timestamp="2012-06-25T14:51:58Z" changeset="12012370" uid="84263" user="Robert Whittaker">
    <tag k="amenity" v="post_box"/>
    <tag k="box_type" v="pillar_box"/>
    <tag k="ref" v="BH2 109"/>
    <tag k="royal_cypher" v="EVIIR"/>
  </node>
  <node id="824279993" lat="50.7288510" lon="-1.8790910" version="3" timestamp="2012-07-31T13:11:39Z" changeset="12561136" uid="84263" user="Robert Whittaker">
    <tag k="amenity" v="post_box"/>
    <tag k="box_type" v="pillar_box"/>
    <tag k="ref" v="BH2 150"/>
    <tag k="royal_cypher" v="EVIIR"/>
  </node>
  <node id="824283839" lat="50.7341374" lon="-1.8852607" version="2" timestamp="2012-06-24T09:25:09Z" changeset="11997348" uid="84263" user="Robert Whittaker">
    <tag k="amenity" v="post_box"/>
    <tag k="box_type" v="pillar_box"/>
    <tag k="ref" v="BH3 214"/>
    <tag k="royal_cypher" v="EVIIR"/>
  </node>
  <node id="824415657" lat="50.7165150" lon="-1.8944550" version="2" timestamp="2012-06-24T09:25:09Z" changeset="11997348" uid="84263" user="Robert Whittaker">
    <tag k="amenity" v="post_box"/>
    <tag k="box_type" v="pillar_box"/>
    <tag k="ref" v="BH4 101"/>
    <tag k="royal_cypher" v="EVIIR"/>
  </node>
  <node id="824415663" lat="50.7159160" lon="-1.8982320" version="2" timestamp="2012-06-24T09:25:09Z" changeset="11997348" uid="84263" user="Robert Whittaker">
    <tag k="amenity" v="post_box"/>
    <tag k="box_type" v="pillar_box"/>
    <tag k="fixme" v="Need to get correct side of road"/>
    <tag k="ref" v="BH4 120"/>
    <tag k="royal_cypher" v="EVIIR"/>
  </node>
  <node id="824415666" lat="50.7141230" lon="-1.9014070" version="2" timestamp="2012-06-24T09:25:09Z" changeset="11997348" uid="84263" user="Robert Whittaker">
    <tag k="amenity" v="post_box"/>
    <tag k="box_type" v="pillar_box"/>
    <tag k="ref" v="BH4 122"/>
    <tag k="royal_cypher" v="EVIIR"/>
  </node>
  <node id="824415671" lat="50.7196660" lon="-1.9042400" version="2" timestamp="2012-06-24T09:25:09Z" changeset="11997348" uid="84263" user="Robert Whittaker">
    <tag k="amenity" v="post_box"/>
    <tag k="box_type" v="pillar_box"/>
    <tag k="ref" v="BH4 118"/>
    <tag k="royal_cypher" v="EVIIR"/>
  </node>
  <node id="824430458" lat="50.7297170" lon="-1.8201680" version="3" timestamp="2012-06-24T09:25:09Z" changeset="11997348" uid="84263" user="Robert Whittaker">
    <tag k="amenity" v="post_box"/>
    <tag k="box_type" v="pillar_box"/>
    <tag k="ref" v="BH5 137"/>
    <tag k="royal_cypher" v="EVIIR"/>
  </node>
  <node id="824430486" lat="50.7228910" lon="-1.8368031" version="4" timestamp="2013-01-05T22:49:24Z" changeset="14542452" uid="397946" user="untitled">
    <tag k="amenity" v="post_box"/>
    <tag k="box_type" v="pillar_box"/>
    <tag k="ref" v="BH5 119"/>
    <tag k="royal_cypher" v="EVIIR"/>
  </node>
  <node id="824451728" lat="50.7344700" lon="-1.8167350" version="3" timestamp="2012-11-05T13:56:55Z" changeset="13761066" uid="84263" user="Robert Whittaker">
    <tag k="amenity" v="post_box"/>
    <tag k="box_type" v="pillar_box"/>
    <tag k="ref" v="BH6 235"/>
    <tag k="royal_cypher" v="EVIIR"/>
  </node>
  <node id="824451747" lat="50.7296305" lon="-1.8131117" version="4" timestamp="2013-02-03T15:28:34Z" changeset="14897835" uid="397946" user="untitled">
    <tag k="amenity" v="post_box"/>
    <tag k="box_type" v="pillar_box"/>
    <tag k="ref" v="BH6 126"/>
    <tag k="royal_cypher" v="EVIIR"/>
  </node>
  <node id="824451752" lat="50.7249444" lon="-1.8090320" version="3" timestamp="2013-01-05T21:56:14Z" changeset="14542452" uid="397946" user="untitled">
    <tag k="amenity" v="post_box"/>
    <tag k="box_type" v="pillar_box"/>
    <tag k="fixme" v="Can't see Southbourne Road"/>
    <tag k="ref" v="BH6 114"/>
    <tag k="royal_cypher" v="EVIIR"/>
  </node>
  <node id="824451807" lat="50.7234150" lon="-1.8147180" version="2" timestamp="2012-06-24T09:25:10Z" changeset="11997348" uid="84263" user="Robert Whittaker">
    <tag k="amenity" v="post_box"/>
    <tag k="box_type" v="pillar_box"/>
    <tag k="ref" v="BH6 154"/>
    <tag k="royal_cypher" v="EVIIR"/>
  </node>
  <node id="824451812" lat="50.7270580" lon="-1.8136880" version="3" timestamp="2012-06-29T08:12:51Z" changeset="12053918" uid="84263" user="Robert Whittaker">
    <tag k="amenity" v="post_box"/>
    <tag k="box_type" v="pillar_box"/>
    <tag k="ref" v="BH6 124"/>
    <tag k="royal_cypher" v="EVIIR"/>
  </node>
  <node id="832374126" lat="50.8591600" lon="-3.4042346" version="2" timestamp="2014-01-29T15:03:54Z" changeset="20266724" uid="126370" user="wilpin">
    <tag k="amenity" v="post_box"/>
    <tag k="royal_cypher" v="EVIIR"/>
  </node>
  <node id="833747842" lat="50.7653686" lon="0.2763841" version="4" timestamp="2013-05-06T12:06:08Z" changeset="15996745" uid="76617" user="robbieonsea">
    <tag k="amenity" v="post_box"/>
    <tag k="collection_times" v="Mo-Fr 17:00; Sa 11:00"/>
    <tag k="operator" v="Royal Mail"/>
    <tag k="post_box:type" v="wall"/>
    <tag k="ref" v="BN21 730"/>
    <tag k="royal_cypher" v="EVIIR"/>
  </node>
  <node id="846479814" lat="57.3281982" lon="-4.4734961" version="2" timestamp="2013-03-08T20:18:47Z" changeset="15294661" uid="51722" user="Chris Parker">
    <tag k="amenity" v="post_box"/>
    <tag k="collection_times" v="Mo-Fr 17:15; Sa 16:00"/>
    <tag k="operator" v="Royal Mail"/>
    <tag k="post_box:type" v="wall"/>
    <tag k="ref" v="IV3 142"/>
    <tag k="royal_cypher" v="EVIIR"/>
    <tag k="source" v="survey"/>
  </node>
  <node id="855421192" lat="52.9447469" lon="1.2120773" version="2" timestamp="2013-06-09T17:54:24Z" changeset="16485849" uid="84263" user="Robert Whittaker">
    <tag k="amenity" v="post_box"/>
    <tag k="collection_times" v="Mo-Fr 16:15; Sa 10:00"/>
    <tag k="post_box:type" v="pillar"/>
    <tag k="ref" v="NR26 2609"/>
    <tag k="royal_cypher" v="EVIIR"/>
  </node>
  <node id="857211386" lat="51.9988029" lon="-0.2981550" version="4" timestamp="2013-06-06T12:00:18Z" changeset="16444064" uid="84263" user="Robert Whittaker">
    <tag k="amenity" v="post_box"/>
    <tag k="box_type" v="wall_box"/>
    <tag k="collection_times" v="Mo-Fr 07:15,16:45; Sa 07:15"/>
    <tag k="note" v="Collection plate has &quot;postbox number 74&quot;; prefix for ref guessed. Also gives Saturday collection time as 7.15pm, which does not seem likely."/>
    <tag k="ref" v="SG5 74"/>
    <tag k="royal_cypher" v="EVIIR"/>
  </node>
  <node id="876465229" lat="50.8770450" lon="-1.9778820" version="4" timestamp="2013-08-23T09:23:25Z" changeset="17467168" uid="84263" user="Robert Whittaker">
    <tag k="amenity" v="post_box"/>
    <tag k="box_type" v="wall_box"/>
    <tag k="collection_times" v="Mo-Fr 14:45; Sa 10:30"/>
    <tag k="description" v="Set in wall of Horton Inn, by car park."/>
    <tag k="ref" v="BH21 57"/>
    <tag k="royal_cypher" v="EVIIR"/>
  </node>
  <node id="895549095" lat="51.7059784" lon="-2.0360401" version="2" timestamp="2013-06-28T20:29:07Z" changeset="16744458" uid="530410" user="PJD67">
    <tag k="amenity" v="post_box"/>
    <tag k="operator" v="Royal Mail"/>
    <tag k="ref" v="GL7 33"/>
    <tag k="royal_cypher" v="EVIIR"/>
    <tag k="source" v="local_knowledge"/>
  </node>
  <node id="899592405" lat="50.8417210" lon="-1.9414900" version="2" timestamp="2010-09-06T21:10:04Z" changeset="5702881" uid="253958" user="user_253958">
    <tag k="amenity" v="post_box"/>
    <tag k="box_type" v="wall_box"/>
    <tag k="collection_times" v="Mo-Fr 12:00; Sa 09:00"/>
    <tag k="description" v="Small box in the wall of the cottage named Greenbanks"/>
    <tag k="fixme" v="One of the roads is called Lower Row"/>
    <tag k="ref" v="BH21 41"/>
    <tag k="royal_cypher" v="EVIIR"/>
  </node>
  <node id="938872803" lat="50.8128528" lon="-1.0596176" version="3" timestamp="2012-01-23T15:01:32Z" changeset="10476032" uid="76617" user="robbieonsea">
    <tag k="amenity" v="post_box"/>
    <tag k="collection_times" v="Mo-Fr 17:00; Sa 11:45"/>
    <tag k="post_box:type" v="pillar"/>
    <tag k="ref" v="PO3 136"/>
    <tag k="royal_cypher" v="EVIIR"/>
  </node>
  <node id="938872815" lat="50.7820857" lon="-1.0737195" version="3" timestamp="2011-11-22T11:20:21Z" changeset="9907778" uid="76617" user="robbieonsea">
    <tag k="amenity" v="post_box"/>
    <tag k="collection_times" v="Mo-Fr 16:45; Sa 11:30"/>
    <tag k="post_box:type" v="pillar"/>
    <tag k="ref" v="PO4 151"/>
    <tag k="royal_cypher" v="EVIIR"/>
  </node>
  <node id="962316850" lat="57.4639275" lon="-4.5138948" version="1" timestamp="2010-10-23T22:09:55Z" changeset="6152186" uid="4985" user="Vclaw">
    <tag k="amenity:disused" v="post_box"/>
    <tag k="post_box:type" v="wall"/>
    <tag k="royal_cypher" v="EVIIR"/>
  </node>
  <node id="993474223" lat="52.1151602" lon="-2.3270393" version="4" timestamp="2010-11-28T12:30:14Z" changeset="6477611" uid="369186" user="mwbg">
    <tag k="amenity" v="post_box"/>
    <tag k="box_type" v="pillar_box"/>
    <tag k="collection_plate" v="CP1"/>
    <tag k="collection_times" v="Mo-Fr 17:45; Sa 11:30"/>
    <tag k="historic_operator" v="Post Office"/>
    <tag k="ref" v="WR14 3"/>
    <tag k="royal_cypher" v="EVIIR"/>
  </node>
  <node id="994866639" lat="52.4710314" lon="0.8631140" version="1" timestamp="2010-11-19T16:27:02Z" changeset="6408191" uid="84263" user="Robert Whittaker">
    <tag k="amenity" v="post_box"/>
    <tag k="collection_times" v="Mo-Fr 17:30; Sa 11:00"/>
    <tag k="post_box:type" v="lamp"/>
    <tag k="ref" v="IP24 3309"/>
    <tag k="royal_cypher" v="EVIIR"/>
  </node>
  <node id="1014441411" lat="52.1305762" lon="-2.3846123" version="4" timestamp="2013-06-05T20:49:45Z" changeset="16437478" uid="369186" user="mwbg">
    <tag k="amenity" v="post_box"/>
    <tag k="box_type" v="wall_box"/>
    <tag k="collection_plate" v="CP5"/>
    <tag k="collection_times" v="Mo-Fr 16:00; Sa 07:00"/>
    <tag k="description" v="In surrounding wall of house"/>
    <tag k="historic_operator" v="Post Office"/>
    <tag k="ref" v="WR13 62"/>
    <tag k="royal_cypher" v="EVIIR"/>
  </node>
  <node id="1081349441" lat="57.1476670" lon="-2.1066580" version="10" timestamp="2014-01-17T18:24:59Z" changeset="20055160" uid="92905" user="benwatt">
    <tag k="amenity" v="post_box"/>
    <tag k="collection_times" v="Mo-Fr 18:30; Sa 13:00"/>
    <tag k="operator" v="Royal Mail"/>
    <tag k="post_box:type" v="pillar"/>
    <tag k="ref" v="AB25 63"/>
    <tag k="royal_cypher" v="EVIIR"/>
    <tag k="source" v="Survey"/>
  </node>
  <node id="1110235600" lat="52.8282320" lon="-3.1419880" version="3" timestamp="2011-01-19T12:19:13Z" changeset="7019807" uid="369186" user="mwbg">
    <tag k="amenity" v="post_box"/>
    <tag k="box_type" v="wall_box"/>
    <tag k="collection_times" v="Mo-Fr 10:00; Sa 10:00"/>
    <tag k="note" v="Small lamp box embedded into wall."/>
    <tag k="ref" v="SY10 75"/>
    <tag k="royal_cypher" v="EVIIR"/>
  </node>
  <node id="1110816925" lat="52.0690109" lon="-2.3570090" version="4" timestamp="2013-06-06T20:47:54Z" changeset="16449764" uid="369186" user="mwbg">
    <tag k="amenity" v="post_box"/>
    <tag k="box_type" v="wall_box"/>
    <tag k="collection_plate" v="CP5"/>
    <tag k="collection_times" v="Mo-Fr 16:15; Sa 07:45"/>
    <tag k="historic_operator" v="(none)"/>
    <tag k="ref" v="WR13 72"/>
    <tag k="royal_cypher" v="EVIIR"/>
  </node>
  <node id="1111367494" lat="52.0910018" lon="-2.3602410" version="3" timestamp="2013-06-06T20:55:32Z" changeset="16449853" uid="369186" user="mwbg">
    <tag k="amenity" v="post_box"/>
    <tag k="box_type" v="wall_box"/>
    <tag k="collection_plate" v="CP5"/>
    <tag k="collection_times" v="Mo-Fr 16:00; Sa 07:00"/>
    <tag k="historic_operator" v="none"/>
    <tag k="ref" v="WR13 63"/>
    <tag k="royal_cypher" v="EVIIR"/>
    <tag k="source" v="survey"/>
  </node>
  <node id="1209295673" lat="50.7851986" lon="-1.0834582" version="2" timestamp="2012-02-12T16:08:15Z" changeset="10664464" uid="76617" user="robbieonsea">
    <tag k="amenity" v="post_box"/>
    <tag k="collection_times" v="Mo-Fr 17:15; Sa 11:45"/>
    <tag k="post_box:type" v="pillar"/>
    <tag k="ref" v="PO5 11"/>
    <tag k="royal_cypher" v="EVIIR"/>
  </node>
  <node id="1213086491" lat="50.8114974" lon="-1.0694826" version="3" timestamp="2013-10-13T10:40:01Z" changeset="18330035" uid="76617" user="robbieonsea">
    <tag k="amenity" v="post_box"/>
    <tag k="collection_times" v="Mo-Fr 16:45; Sa 11:45"/>
    <tag k="post_box:type" v="pillar"/>
    <tag k="ref" v="PO2 110"/>
    <tag k="royal_cypher" v="EVIIR"/>
  </node>
  <node id="1214681191" lat="50.8191175" lon="-1.0783808" version="5" timestamp="2013-08-06T19:16:34Z" changeset="17245687" uid="76617" user="robbieonsea">
    <tag k="amenity" v="post_box"/>
    <tag k="collection_times" v="Mo-Fr 17:15; Sa 11:30"/>
    <tag k="post_box:type" v="pillar"/>
    <tag k="ref" v="PO2 84"/>
    <tag k="royal_cypher" v="EVIIR"/>
  </node>
  <node id="1233710927" lat="51.4880823" lon="-3.1780917" version="1" timestamp="2011-04-05T15:23:22Z" changeset="7775853" uid="84263" user="Robert Whittaker">
    <tag k="amenity" v="post_box"/>
    <tag k="box_type" v="pillar"/>
    <tag k="collection_times" v="Mo-Fr 18:30; Sa 12:30"/>
    <tag k="ref" v="CF10 38"/>
    <tag k="royal_cypher" v="EVIIR"/>
  </node>
  <node id="1233710973" lat="51.4900180" lon="-3.1779174" version="3" timestamp="2011-11-27T16:35:45Z" changeset="9968965" uid="84263" user="Robert Whittaker">
    <tag k="amenity" v="post_box"/>
    <tag k="box_type" v="pillar"/>
    <tag k="collection_times" v="Mo-Fr 17:30"/>
    <tag k="fixme" v="check for Sa collection time"/>
    <tag k="ref" v="CF24 55"/>
    <tag k="royal_cypher" v="EVIIR"/>
  </node>
  <node id="1237748411" lat="51.8973230" lon="-2.0995100" version="1" timestamp="2011-04-08T21:06:16Z" changeset="7808210" uid="84263" user="Robert Whittaker">
    <tag k="amenity" v="post_box"/>
    <tag k="box_type" v="wall"/>
    <tag k="collection_times" v="Mo-Fr 17:30; Sa 12:15"/>
    <tag k="ref" v="GL51 120"/>
    <tag k="royal_cypher" v="EVIIR"/>
  </node>
  <node id="1274290348" lat="50.7812810" lon="-1.0760805" version="2" timestamp="2011-11-22T11:20:21Z" changeset="9907778" uid="76617" user="robbieonsea">
    <tag k="amenity" v="post_box"/>
    <tag k="collection_times" v="Mo-Fr 16:45; Sa 11:30"/>
    <tag k="post_box:type" v="pillar"/>
    <tag k="ref" v="PO4 161"/>
    <tag k="royal_cypher" v="EVIIR"/>
  </node>
  <node id="1311716966" lat="51.4945525" lon="-0.2072172" version="4" timestamp="2012-11-30T20:20:39Z" changeset="14103601" uid="82783" user="Paul The Archivist">
    <tag k="amenity" v="post_box"/>
    <tag k="post_box:apertures" v="1"/>
    <tag k="post_box:manufacturer" v="Handyside, Derby &amp; London"/>
    <tag k="post_box:type" v="pillar"/>
    <tag k="ref" v="W14 40"/>
    <tag k="royal_cypher" v="EVIIR"/>
  </node>
  <node id="1381617414" lat="52.0575363" lon="-2.7129500" version="2" timestamp="2011-08-04T21:33:17Z" changeset="8923766" uid="369186" user="mwbg">
    <tag k="amenity" v="post_box"/>
    <tag k="box_type" v="pillar_box"/>
    <tag k="collection_plate" v="CP1"/>
    <tag k="collection_times" v="Mo-Fr 18:30; Sa 11:30"/>
    <tag k="historic_operator" v="Post Office"/>
    <tag k="ref" v="HR1 6"/>
    <tag k="royal_cypher" v="EVIIR"/>
  </node>
  <node id="1445884985" lat="51.1612828" lon="-1.8049874" version="3" timestamp="2012-04-10T08:25:46Z" changeset="11249117" uid="84263" user="Robert Whittaker">
    <tag k="amenity" v="post_box"/>
    <tag k="collection_times" v="Mo-Fr 16:15; Sa 07:45"/>
    <tag k="post_box:type" v="wall"/>
    <tag k="ref" v="SP4 151"/>
    <tag k="royal_cypher" v="EVIIR"/>
  </node>
  <node id="1468302297" lat="51.0885562" lon="-0.7267993" version="3" timestamp="2013-10-23T14:33:55Z" changeset="18504081" uid="917436" user="sinh">
    <tag k="amenity" v="post_box"/>
    <tag k="collection_times" v="Mo-Fr 17:15; Sa 12:00"/>
    <tag k="post_box:type" v="pillar"/>
    <tag k="ref" v="GU27 98"/>
    <tag k="royal_cypher" v="EVIIR"/>
  </node>
  <node id="1484006406" lat="50.7859370" lon="-1.1004357" version="2" timestamp="2012-03-08T20:06:12Z" changeset="10913084" uid="76617" user="robbieonsea">
    <tag k="amenity" v="post_box"/>
    <tag k="collection_times" v="Mo-Fr 17:00; Sa 11:45"/>
    <tag k="post_box:type" v="pillar"/>
    <tag k="ref" v="PO5 31"/>
    <tag k="royal_cypher" v="EVIIR"/>
  </node>
  <node id="1519638042" lat="51.3217188" lon="-0.1984555" version="1" timestamp="2011-11-27T14:59:12Z" changeset="9967803" uid="221923" user="michaelinredhill">
    <tag k="amenity" v="post_box"/>
    <tag k="ref" v="SM7 208"/>
    <tag k="royal_cypher" v="EVIIR"/>
  </node>
  <node id="1526949803" lat="50.7824191" lon="-1.0693717" version="1" timestamp="2011-12-01T19:31:23Z" changeset="10011158" uid="76617" user="robbieonsea">
    <tag k="amenity" v="post_box"/>
    <tag k="collection_times" v="Mo-Fr 16:45; Sa 11:30"/>
    <tag k="post_box:type" v="pillar"/>
    <tag k="ref" v="PO4 122"/>
    <tag k="royal_cypher" v="EVIIR"/>
  </node>
  <node id="1575638832" lat="52.6159949" lon="0.6012560" version="1" timestamp="2012-01-03T15:29:30Z" changeset="10282313" uid="84263" user="Robert Whittaker">
    <tag k="amenity" v="post_box"/>
    <tag k="box_type" v="wall"/>
    <tag k="collection_times" v="Mo-Fr 16:00; Sa 09:30"/>
    <tag k="note" v="In front wall of private house"/>
    <tag k="ref" v="PE37 201"/>
    <tag k="royal_cypher" v="EVIIR"/>
  </node>
  <node id="1656794730" lat="52.8032003" lon="1.2248619" version="2" timestamp="2012-08-13T12:50:58Z" changeset="12713575" uid="84263" user="Robert Whittaker">
    <tag k="amenity" v="post_box"/>
    <tag k="box_type" v="wall"/>
    <tag k="collection_times" v="Mo-Fr 16:00; Sa 07:15"/>
    <tag k="ref" v="NR11 1118"/>
    <tag k="royal_cypher" v="EVIIR"/>
  </node>
  <node id="1706121092" lat="51.8368138" lon="0.9256282" version="3" timestamp="2012-04-15T19:36:24Z" changeset="11314869" uid="84263" user="Robert Whittaker">
    <tag k="amenity" v="post_box"/>
    <tag k="collection_times" v="Mo-Fr 16:45; Sa 10:30"/>
    <tag k="note" v="in pillar of bricks"/>
    <tag k="operator" v="Royal Mail"/>
    <tag k="post_box:type" v="wall"/>
    <tag k="ref" v="CO5 142"/>
    <tag k="royal_cypher" v="EVIIR"/>
    <tag k="source" v="survey; gps"/>
  </node>
  <node id="1744674888" lat="51.4986514" lon="-2.1442663" version="1" timestamp="2012-05-07T20:15:26Z" changeset="11533298" uid="76617" user="robbieonsea">
    <tag k="amenity" v="post_box"/>
    <tag k="collection_times" v="Mo-Fr 16:45; Sa 09:00"/>
    <tag k="post_box:type" v="wall"/>
    <tag k="ref" v="SN14 80"/>
    <tag k="royal_cypher" v="EVIIR"/>
  </node>
  <node id="1747065091" lat="56.1198541" lon="-3.9351274" version="1" timestamp="2012-05-09T20:42:51Z" changeset="11553344" uid="4985" user="Vclaw">
    <tag k="amenity" v="post_box"/>
    <tag k="collection_times" v="Mo-Fr 18:00; Sa 11:45"/>
    <tag k="indoor" v="yes"/>
    <tag k="note" v="in the station, on platform 2"/>
    <tag k="operator" v="Royal Mail"/>
    <tag k="post_box:type" v="pillar"/>
    <tag k="ref" v="FK8 7"/>
    <tag k="royal_cypher" v="EVIIR"/>
  </node>
  <node id="1760524450" lat="51.4398686" lon="-2.5591870" version="3" timestamp="2012-09-11T22:39:16Z" changeset="13076387" uid="14846" user="ndm">
    <tag k="amenity" v="post_box"/>
    <tag k="collection_times" v="Mo-Fr 17:15; Sa 12:45"/>
    <tag k="post_box:type" v="wall"/>
    <tag k="ref" v="BS4 113"/>
    <tag k="royal_cypher" v="EVIIR"/>
  </node>
  <node id="1777325792" lat="53.2594100" lon="-3.9782000" version="1" timestamp="2012-06-05T19:13:04Z" changeset="11809277" uid="21264" user="Pobice">
    <tag k="amenity" v="post_box"/>
    <tag k="post_box:type" v="wall"/>
    <tag k="ref" v="LL33 344"/>
    <tag k="royal_cypher" v="EVIIR"/>
  </node>
  <node id="1780671841" lat="52.1705794" lon="-0.8999974" version="1" timestamp="2012-06-08T19:41:56Z" changeset="11838672" uid="530410" user="PJD67">
    <tag k="amenity" v="post_box"/>
    <tag k="operator" v="Royal Mail"/>
    <tag k="ref" v="NN7 109"/>
    <tag k="royal_cypher" v="EVIIR"/>
  </node>
  <node id="1780728722" lat="53.3223767" lon="-3.8488700" version="1" timestamp="2012-06-08T20:13:55Z" changeset="11839037" uid="21264" user="Pobice">
    <tag k="amenity" v="post_box"/>
    <tag k="post_box:type" v="wall"/>
    <tag k="ref" v="LL30 116"/>
    <tag k="royal_cypher" v="EVIIR"/>
  </node>
  <node id="1781425340" lat="50.8592318" lon="0.3543183" version="1" timestamp="2012-06-09T10:07:38Z" changeset="11843204" uid="76617" user="robbieonsea">
    <tag k="amenity" v="post_box"/>
    <tag k="collection_times" v="Mo-Fr 16:00; Sa 08:30"/>
    <tag k="post_box:type" v="wall"/>
    <tag k="ref" v="BN27 953"/>
    <tag k="royal_cypher" v="EVIIR"/>
  </node>
  <node id="1813649678" lat="50.8217993" lon="-1.0849663" version="2" timestamp="2014-02-07T21:33:26Z" changeset="20437984" uid="76617" user="robbieonsea">
    <tag k="amenity" v="post_box"/>
    <tag k="collection_times" v="Mo-Fr 17:45; Sa 11:30"/>
    <tag k="post_box:type" v="pillar"/>
    <tag k="ref" v="PO2 120"/>
    <tag k="royal_cypher" v="EVIIR"/>
  </node>
  <node id="1816038182" lat="51.5152911" lon="-0.1115921" version="2" timestamp="2012-10-07T15:17:34Z" changeset="13399571" uid="367630" user="wadeLondon">
    <tag k="amenity" v="post_box"/>
    <tag k="collection_times" v="Mo-Fr 18:00; Sa 12:00"/>
    <tag k="ref" v="WC2 54"/>
    <tag k="royal_cypher" v="EVIIR"/>
    <tag k="source" v="Bing"/>
  </node>
  <node id="1826911466" lat="52.4824291" lon="0.9735477" version="1" timestamp="2012-07-15T20:40:17Z" changeset="12235715" uid="84263" user="Robert Whittaker">
    <tag k="amenity" v="post_box"/>
    <tag k="box_type" v="wall"/>
    <tag k="collection_times" v="Mo-Fr 16:00; Sa 12:15"/>
    <tag k="ref" v="NR16 1642"/>
    <tag k="royal_cypher" v="EVIIR"/>
  </node>
  <node id="1827055009" lat="50.8585752" lon="-1.7589893" version="1" timestamp="2012-07-15T22:26:20Z" changeset="12237038" uid="76617" user="robbieonsea">
    <tag k="amenity" v="post_box"/>
    <tag k="collection_times" v="Mo-Fr 10:00; Sa 10:00"/>
    <tag k="post_box:type" v="wall"/>
    <tag k="ref" v="BH24 27"/>
    <tag k="royal_cypher" v="EVIIR"/>
  </node>
  <node id="1831348079" lat="57.1612208" lon="-2.1101559" version="1" timestamp="2012-07-19T19:34:59Z" changeset="12345129" uid="605122" user="neiljp">
    <tag k="disused" v="yes"/>
    <tag k="disused:amenity" v="post_box"/>
    <tag k="disused:post_box:type" v="wall"/>
    <tag k="note" v="wall post box, now disused"/>
    <tag k="royal_cypher" v="EVIIR"/>
  </node>
  <node id="1841302212" lat="52.2425519" lon="-0.8852659" version="2" timestamp="2012-07-29T20:24:17Z" changeset="12540112" uid="530410" user="PJD67">
    <tag k="amenity" v="post_box"/>
    <tag k="operator" v="Royal Mail"/>
    <tag k="ref" v="NN1 12"/>
    <tag k="royal_cypher" v="EVIIR"/>
  </node>
  <node id="1851737836" lat="52.2539481" lon="-0.8854620" version="1" timestamp="2012-08-04T16:32:00Z" changeset="12611253" uid="530410" user="PJD67">
    <tag k="amenity" v="post_box"/>
    <tag k="operator" v="Royal Mail"/>
    <tag k="ref" v="NN2 70"/>
    <tag k="royal_cypher" v="EVIIR"/>
  </node>
  <node id="1864650688" lat="52.9303752" lon="1.2957134" version="2" timestamp="2013-08-27T17:14:26Z" changeset="17540766" uid="84263" user="Robert Whittaker">
    <tag k="amenity" v="post_box"/>
    <tag k="box_type" v="pillar"/>
    <tag k="fixme" v="resurvey to find ref and collection_times, now that now that collection plate has been replaced"/>
    <tag k="royal_cypher" v="EVIIR"/>
  </node>
  <node id="1955815489" lat="51.9700106" lon="-1.9292161" version="1" timestamp="2012-10-09T21:30:43Z" changeset="13433637" uid="186212" user="srbrook">
    <tag k="amenity" v="post_box"/>
    <tag k="collection_times" v="Mo-Fr 15:30; Sa 08:00"/>
    <tag k="post_box:type" v="wall"/>
    <tag k="ref" v="GL54 111"/>
    <tag k="royal_cypher" v="EVIIR"/>
  </node>
  <node id="1976788290" lat="51.8870280" lon="-1.7632178" version="1" timestamp="2012-10-21T16:43:28Z" changeset="13582438" uid="186212" user="srbrook">
    <tag k="amenity" v="post_box"/>
    <tag k="collection_times" v="Mo-Fr 16:30; Sa 10:30"/>
    <tag k="post_box:type" v="wall"/>
    <tag k="ref" v="GL54 230"/>
    <tag k="royal_cypher" v="EVIIR"/>
  </node>
  <node id="1976788318" lat="51.9471965" lon="-1.9454504" version="1" timestamp="2012-10-21T16:43:29Z" changeset="13582438" uid="186212" user="srbrook">
    <tag k="amenity" v="post_box"/>
    <tag k="collection_times" v="Mo-Fr 16:30; Sa 09:30"/>
    <tag k="post_box:type" v="wall"/>
    <tag k="ref" v="GL54 52"/>
    <tag k="royal_cypher" v="EVIIR"/>
  </node>
  <node id="2055932436" lat="51.5106849" lon="-0.0396777" version="1" timestamp="2012-12-08T13:53:01Z" changeset="14200138" uid="82783" user="Paul The Archivist">
    <tag k="amenity" v="post_box"/>
    <tag k="operator" v="Royal Mail"/>
    <tag k="post_box:apertures" v="1"/>
    <tag k="post_box:manufacturer" v="McDowall, Steven &amp; Co Ltd, London &amp; Glasgow"/>
    <tag k="post_box:type" v="pillar"/>
    <tag k="ref" v="E14 52"/>
    <tag k="royal_cypher" v="EVIIR"/>
  </node>
  <node id="2159690433" lat="52.0182238" lon="-2.5666778" version="1" timestamp="2013-02-17T17:03:00Z" changeset="15066384" uid="186212" user="srbrook">
    <tag k="amenity" v="post_box"/>
    <tag k="collection_times" v="Mo-Fr 11:00; Sa 10:15"/>
    <tag k="post_box:type" v="wall"/>
    <tag k="ref" v="HR1 169"/>
    <tag k="royal_cypher" v="EVIIR"/>
  </node>
  <node id="2181988631" lat="52.3410085" lon="1.0024568" version="2" timestamp="2013-03-03T09:33:06Z" changeset="15231212" uid="84263" user="Robert Whittaker">
    <tag k="amenity" v="post_box"/>
    <tag k="box_type" v="pillar"/>
    <tag k="collection_times" v="Mo-Fr 16:45; Sa 11:30"/>
    <tag k="ref" v="IP22 7016"/>
    <tag k="royal_cypher" v="EVIIR"/>
  </node>
  <node id="2247165623" lat="51.4979901" lon="-0.2075917" version="1" timestamp="2013-04-03T20:07:33Z" changeset="15600032" uid="82783" user="Paul The Archivist">
    <tag k="amenity" v="post_box"/>
    <tag k="operator" v="Royal Mail"/>
    <tag k="post_box:design" v="Type A"/>
    <tag k="post_box:manufacturer" v="McDowall, Steven &amp; Co Ltd, London &amp; Glasgow"/>
    <tag k="post_box:type" v="pillar"/>
    <tag k="ref" v="W14 31"/>
    <tag k="royal_cypher" v="EVIIR"/>
    <tag k="source" v="survey"/>
  </node>
  <node id="2247198505" lat="51.5001179" lon="-0.1699882" version="1" timestamp="2013-04-03T20:32:53Z" changeset="15600407" uid="82783" user="Paul The Archivist">
    <tag k="amenity" v="post_box"/>
    <tag k="operator" v="Royal Mail"/>
    <tag k="post_box:manufacturer" v="McDowall, Steven &amp; Co Ltd, London &amp; Glasgow"/>
    <tag k="post_box:type" v="pillar"/>
    <tag k="ref" v="SW7 13"/>
    <tag k="royal_cypher" v="EVIIR"/>
    <tag k="source" v="Bing;survey"/>
  </node>
  <node id="2284070002" lat="51.8953170" lon="-1.6390054" version="1" timestamp="2013-04-28T10:44:14Z" changeset="15893873" uid="49031" user="craigloftus">
    <tag k="amenity" v="post_box"/>
    <tag k="collection_times" v="Mo-Fr 16:00; Sa 09:15"/>
    <tag k="note" v="Wall in brick pillar"/>
    <tag k="post_box:type" v="wall"/>
    <tag k="ref" v="OX7 251"/>
    <tag k="royal_cypher" v="EVIIR"/>
    <tag k="source" v="survey"/>
    <tag k="survey:date" v="2013-04-27"/>
  </node>
  <node id="2286051927" lat="52.5530703" lon="1.0309977" version="1" timestamp="2013-04-29T20:01:03Z" changeset="15913329" uid="84263" user="Robert Whittaker">
    <tag k="amenity" v="post_box"/>
    <tag k="box_type" v="wall"/>
    <tag k="collection_times" v="Mo-Fr 16:15; Sa 08:15"/>
    <tag k="fixme" v="check ref"/>
    <tag k="note" v="ref uncertain -- collection plate obscured"/>
    <tag k="ref" v="NR18 1809"/>
    <tag k="royal_cypher" v="EVIIR"/>
  </node>
  <node id="2320491032" lat="50.3487110" lon="-3.5727650" version="3" timestamp="2013-05-28T09:40:42Z" changeset="16321284" uid="855381" user="Pierre Riteau">
    <tag k="disused" v="yes"/>
    <tag k="disused:amenity" v="post_box"/>
    <tag k="disused:post_box:type" v="wall"/>
    <tag k="royal_cypher" v="EVIIR"/>
  </node>
  <node id="2326772374" lat="52.7115371" lon="1.0378361" version="1" timestamp="2013-05-31T08:14:30Z" changeset="16361637" uid="84263" user="Robert Whittaker">
    <tag k="amenity" v="post_box"/>
    <tag k="box_type" v="wall"/>
    <tag k="collection_times" v="Mo-Fr 16:45; Sa 09:30"/>
    <tag k="ref" v="NR20 2009"/>
    <tag k="royal_cypher" v="EVIIR"/>
  </node>
  <node id="2367865167" lat="51.1670898" lon="-0.4645883" version="1" timestamp="2013-06-30T21:32:06Z" changeset="16770733" uid="76617" user="robbieonsea">
    <tag k="amenity" v="post_box"/>
    <tag k="post_box:type" v="wall"/>
    <tag k="ref" v="GU6 81"/>
    <tag k="royal_cypher" v="EVIIR"/>
  </node>
  <node id="2367865168" lat="51.1513615" lon="-0.4755290" version="1" timestamp="2013-06-30T21:32:06Z" changeset="16770733" uid="76617" user="robbieonsea">
    <tag k="amenity" v="post_box"/>
    <tag k="post_box:type" v="wall"/>
    <tag k="ref" v="GU6 166"/>
    <tag k="royal_cypher" v="EVIIR"/>
  </node>
  <node id="2420921369" lat="52.0684307" lon="1.1637904" version="2" timestamp="2013-10-05T22:22:39Z" changeset="18204072" uid="6871" user="smsm1">
    <tag k="amenity" v="post_box"/>
    <tag k="collection_times" v="Mo-Fr 17:30; Sa 13:00"/>
    <tag k="operator" v="Royal Mail"/>
    <tag k="ref" v="IP4 1177"/>
    <tag k="royal_cypher" v="EVIIR"/>
  </node>
  <node id="2422555421" lat="51.1145318" lon="-0.8638654" version="1" timestamp="2013-08-18T09:10:52Z" changeset="17393057" uid="76617" user="robbieonsea">
    <tag k="amenity" v="post_box"/>
    <tag k="post_box:type" v="pillar"/>
    <tag k="royal_cypher" v="EVIIR"/>
  </node>
  <node id="2444719570" lat="53.3238353" lon="-3.8353863" version="1" timestamp="2013-09-03T17:36:28Z" changeset="17658081" uid="530410" user="PJD67">
    <tag k="amenity" v="post_box"/>
    <tag k="operator" v="Royal Mail"/>
    <tag k="ref" v="LL30 55"/>
    <tag k="royal_cypher" v="EVIIR"/>
  </node>
  <node id="2465868588" lat="52.5645872" lon="-2.7369357" version="1" timestamp="2013-09-20T20:13:10Z" changeset="17946302" uid="76617" user="robbieonsea">
    <tag k="amenity" v="post_box"/>
    <tag k="collection_times" v="Mo-Fr 11:15; Sa 07:15"/>
    <tag k="letters_only" v="yes"/>
    <tag k="post_box:type" v="wall"/>
    <tag k="ref" v="SY6 289"/>
    <tag k="royal_cypher" v="EVIIR"/>
  </node>
  <node id="2469476331" lat="52.6297199" lon="-2.6957941" version="1" timestamp="2013-09-23T23:24:00Z" changeset="18000911" uid="76617" user="robbieonsea">
    <tag k="amenity" v="post_box"/>
    <tag k="collection_times" v="Mo-Fr 08:00; Sa 08:30"/>
    <tag k="post_box:type" v="wall"/>
    <tag k="ref" v="SY5 53"/>
    <tag k="royal_cypher" v="EVIIR"/>
  </node>
  <node id="2480676120" lat="51.0553575" lon="-1.8074888" version="1" timestamp="2013-10-02T23:22:55Z" changeset="18153181" uid="76617" user="robbieonsea">
    <tag k="amenity" v="post_box"/>
    <tag k="collection_times" v="Mo-Fr 17:00; Sa 12:00"/>
    <tag k="post_box:type" v="pillar"/>
    <tag k="ref" v="SP2 352"/>
    <tag k="royal_cypher" v="EVIIR"/>
  </node>
  <node id="2535742041" lat="50.8501782" lon="-0.5250184" version="1" timestamp="2013-11-16T22:43:44Z" changeset="18944156" uid="76617" user="robbieonsea">
    <tag k="amenity" v="post_box"/>
    <tag k="collection_times" v="Mo-Fr 16:15; Sa 08:15"/>
    <tag k="post_box:type" v="wall"/>
    <tag k="ref" v="BN18 1297"/>
    <tag k="royal_cypher" v="EVIIR"/>
  </node>
  <node id="2559682682" lat="51.1574205" lon="-0.5828344" version="1" timestamp="2013-12-01T11:56:34Z" changeset="19208494" uid="76617" user="robbieonsea">
    <tag k="amenity" v="post_box"/>
    <tag k="collection_times" v="Mo-Fr 16:45; Sa 08:30"/>
    <tag k="post_box:type" v="wall"/>
    <tag k="ref" v="GU8 27"/>
    <tag k="royal_cypher" v="EVIIR"/>
  </node>
  <node id="2560383038" lat="51.1309076" lon="-0.7820902" version="1" timestamp="2013-12-01T19:07:11Z" changeset="19220466" uid="917436" user="sinh">
    <tag k="amenity" v="post_box"/>
    <tag k="collection_times" v="Mo-Fr 16:15; Sa 08:00"/>
    <tag k="post_box:type" v="wall"/>
    <tag k="ref" v="GU26 63"/>
    <tag k="royal_cypher" v="EVIIR"/>
    <tag k="source" v="survey"/>
  </node>
  <node id="2598386102" lat="51.9873023" lon="-0.5498458" version="1" timestamp="2013-12-28T14:44:06Z" changeset="19679610" uid="142399" user="shirokazan">
    <tag k="amenity" v="post_box"/>
    <tag k="collection_times" v="Mo-Fr 17:15; Sa 09:45"/>
    <tag k="operator" v="Royal Mail"/>
    <tag k="post_box:type" v="wall"/>
    <tag k="ref" v="MK17 28"/>
    <tag k="royal_cypher" v="EVIIR"/>
    <tag k="source" v="survey"/>
  </node>
  <node id="2611223662" lat="51.8888218" lon="-0.4039965" version="1" timestamp="2014-01-05T17:48:24Z" changeset="19828462" uid="142399" user="shirokazan">
    <tag k="amenity" v="post_box"/>
    <tag k="collection_times" v="Mo-Fr 17:00; Sa 12:15"/>
    <tag k="operator" v="Royal Mail"/>
    <tag k="post_box:type" v="pillar"/>
    <tag k="ref" v="LU2 44"/>
    <tag k="royal_cypher" v="EVIIR"/>
    <tag k="source" v="survey"/>
  </node>
  <node id="2620000274" lat="52.0579948" lon="-0.8157953" version="1" timestamp="2014-01-12T17:44:17Z" changeset="19957044" uid="142399" user="shirokazan">
    <tag k="amenity" v="post_box"/>
    <tag k="collection_times" v="Mo-Fr 17:00; Sa 12:00"/>
    <tag k="operator" v="Royal Mail"/>
    <tag k="post_box:type" v="pillar"/>
    <tag k="ref" v="MK12 112"/>
    <tag k="royal_cypher" v="EVIIR"/>
    <tag k="source" v="survey"/>
  </node>
  <node id="2624195139" lat="51.5229351" lon="-0.1260787" version="1" timestamp="2014-01-16T00:17:48Z" changeset="20025124" uid="84681" user="SK53">
    <tag k="amenity" v="post_box"/>
    <tag k="post_box:type" v="pillar"/>
    <tag k="royal_cypher" v="EVIIR"/>
    <tag k="source" v="survey"/>
  </node>
  <node id="2625909856" lat="57.1478810" lon="-2.1003110" version="2" timestamp="2014-01-17T18:24:59Z" changeset="20055160" uid="92905" user="benwatt">
    <tag k="amenity" v="post_box"/>
    <tag k="collection_times" v="Mo-Fr 18:30; Sa 13:00"/>
    <tag k="ref" v="AB10 20"/>
    <tag k="royal_cypher" v="EVIIR"/>
  </node>
  <node id="2664069502" lat="51.0068483" lon="-0.9370275" version="1" timestamp="2014-02-09T21:52:07Z" changeset="20474028" uid="76617" user="robbieonsea">
    <tag k="amenity" v="post_box"/>
    <tag k="collection_times" v="Mo-Fr 17:30; Sa 12:00"/>
    <tag k="post_box:type" v="wall"/>
    <tag k="ref" v="GU32 111"/>
    <tag k="royal_cypher" v="EVIIR"/>
  </node>
  <node id="2680344295" lat="56.1897812" lon="-3.1521045" version="1" timestamp="2014-02-19T10:45:42Z" changeset="20653504" uid="1912128" user="Red Kobold">
    <tag k="amenity" v="post_box"/>
    <tag k="collection_times" v="Mo-Fr 17:00; Sa 12:00"/>
    <tag k="operator" v="Royal Mail"/>
    <tag k="ref" v="KY7 17"/>
    <tag k="royal_cypher" v="EVIIR"/>
    <tag k="source" v="Survey Feb 2014"/>
  </node>

</osm>
